{"type": "FeatureCollection", "features": [ {"type": "Feature", "properties": {"norad_id": 49810, "name": "GSAT0224 (GALILEO 28)", "group": "gnss", "lat": 27.138713651243005, "lon": 6.071176932612679, "alt_km": 23227.633390133324, "timestamp": "2025-12-09T23:33:24.097192+00:00", "meta": {"OBJECT_NAME": "GSAT0224 (GALILEO 28)", "OBJECT_ID": "2021-116B", "EPOCH": "2025-12-07T13:56:35.698272", "MEAN_MOTION": 1.7047563, "ECCENTRICITY": 0.00040182, "INCLINATION": 57.2213, "RA_OF_ASC_NODE": 346.8506, "ARG_OF_PERICENTER": 254.5241, "MEAN_ANOMALY": 105.0474, "EPHEMERIS_TYPE": 0, "CLASSIFICATION_TYPE": "U", "NORAD_CAT_ID": 49810, "ELEMENT_SET_NO": 999, "REV_AT_EPOCH": 2493, "BSTAR": 0, "MEAN_MOTION_DOT": -8.4e-07, "MEAN_MOTION_DDOT": 0}, "tle": {"line1": "1 49810U 21116B   25341.58096873 -.00000084  00000+0  00000+0 0  9995", "line2": "2 49810  57.2213 346.8506 0004018 254.5241 105.0474  1.70475630 24934"}}, "geometry": {"type": "Point", "coordinates": [6.071176932612679, 27.138713651243005]}}, {"type": "Feature", "properties": {"norad_id": 52984, "name": "COSMOS 2557 (706K)", "group": "gnss", "lat": -10.576052150623655, "lon": -43.99444655033607, "alt_km": 19120.57322802274, "timestamp": "2025-12-09T23:33:24.097209+00:00", "meta": {"OBJECT_NAME": "COSMOS 2557 (706K)", "OBJECT_ID": "2022-075A", "EPOCH": "2025-12-07T04:21:00.419904", "MEAN_MOTION": 2.13101754, "ECCENTRICITY": 0.00137049, "INCLINATION": 64.4129, "RA_OF_ASC_NODE": 321.247, "ARG_OF_PERICENTER": 276.9, "MEAN_ANOMALY": 82.939, "EPHEMERIS_TYPE": 0, "CLASSIFICATION_TYPE": "U", "NORAD_CAT_ID": 52984, "ELEMENT_SET_NO": 999, "REV_AT_EPOCH": 2662, "BSTAR": 0, "MEAN_MOTION_DOT": -5.2e-07, "MEAN_MOTION_DDOT": 0}, "tle": {"line1": "1 52984U 22075A   25341.18125486 -.00000052  00000+0  00000+0 0  9990", "line2": "2 52984  64.4129 321.2470 0013704 276.9000  82.9390  2.13101754 26625"}}, "geometry": {"type": "Point", "coordinates": [-43.99444655033607, -10.576052150623655]}}, {"type": "Feature", "properties": {"norad_id": 54031, "name": "COSMOS 2559 (707K)", "group": "gnss", "lat": 46.15046989219175, "lon": 111.27248225298612, "alt_km": 19112.148062598622, "timestamp": "2025-12-09T23:33:24.097227+00:00", "meta": {"OBJECT_NAME": "COSMOS 2559 (707K)", "OBJECT_ID": "2022-130A", "EPOCH": "2025-12-09T08:19:17.567904", "MEAN_MOTION": 2.13101276, "ECCENTRICITY": 0.00118885, "INCLINATION": 64.3842, "RA_OF_ASC_NODE": 321.2605, "ARG_OF_PERICENTER": 192.5851, "MEAN_ANOMALY": 167.383, "EPHEMERIS_TYPE": 0, "CLASSIFICATION_TYPE": "U", "NORAD_CAT_ID": 54031, "ELEMENT_SET_NO": 999, "REV_AT_EPOCH": 2464, "BSTAR": 0, "MEAN_MOTION_DOT": -5.2e-07, "MEAN_MOTION_DDOT": 0}, "tle": {"line1": "1 54031U 22130A   25343.34673111 -.00000052  00000+0  00000+0 0  9990", "line2": "2 54031  64.3842 321.2605 0011888 192.5851 167.3830  2.13101276 24645"}}, "geometry": {"type": "Point", "coordinates": [111.27248225298612, 46.15046989219175]}}, {"type": "Feature", "properties": {"norad_id": 54377, "name": "COSMOS 2564 (761)", "group": "gnss", "lat": -56.06503640202691, "lon": 63.5651464430314, "alt_km": 19119.43883082176, "timestamp": "2025-12-09T23:33:24.097245+00:00", "meta": {"OBJECT_NAME": "COSMOS 2564 (761)", "OBJECT_ID": "2022-161A", "EPOCH": "2025-12-09T04:34:58.856736", "MEAN_MOTION": 2.13102019, "ECCENTRICITY": 0.00086439, "INCLINATION": 64.7379, "RA_OF_ASC_NODE": 199.0169, "ARG_OF_PERICENTER": 205.3114, "MEAN_ANOMALY": 154.7201, "EPHEMERIS_TYPE": 0, "CLASSIFICATION_TYPE": "U", "NORAD_CAT_ID": 54377, "ELEMENT_SET_NO": 999, "REV_AT_EPOCH": 2358, "BSTAR": 0, "MEAN_MOTION_DOT": 4.4e-07, "MEAN_MOTION_DDOT": 0}, "tle": {"line1": "1 54377U 22161A   25343.19095899  .00000044  00000+0  00000+0 0  9991", "line2": "2 54377  64.7379 199.0169 0008643 205.3114 154.7201  2.13102019 23583"}}, "geometry": {"type": "Point", "coordinates": [63.5651464430314, -56.06503640202691]}}, {"type": "Feature", "properties": {"norad_id": 55268, "name": "GPS BIII-6  (PRN 28)", "group": "gnss", "lat": -6.8099033206128015, "lon": 151.1643322926264, "alt_km": 20174.489166351064, "timestamp": "2025-12-09T23:33:24.097263+00:00", "meta": {"OBJECT_NAME": "GPS BIII-6  (PRN 28)", "OBJECT_ID": "2023-009A", "EPOCH": "2025-12-08T05:52:26.989248", "MEAN_MOTION": 2.00555991, "ECCENTRICITY": 0.0003615, "INCLINATION": 55.1046, "RA_OF_ASC_NODE": 156.0217, "ARG_OF_PERICENTER": 356.7859, "MEAN_ANOMALY": 180.9144, "EPHEMERIS_TYPE": 0, "CLASSIFICATION_TYPE": "U", "NORAD_CAT_ID": 55268, "ELEMENT_SET_NO": 999, "REV_AT_EPOCH": 2141, "BSTAR": 0, "MEAN_MOTION_DOT": 5.9e-07, "MEAN_MOTION_DDOT": 0}, "tle": {"line1": "1 55268U 23009A   25342.24475682  .00000059  00000+0  00000+0 0  9996", "line2": "2 55268  55.1046 156.0217 0003615 356.7859 180.9144  2.00555991 21410"}}, "geometry": {"type": "Point", "coordinates": [151.1643322926264, -6.8099033206128015]}}, {"type": "Feature", "properties": {"norad_id": 56564, "name": "BEIDOU-3 G4 (C62)", "group": "gnss", "lat": -0.7868421522896775, "lon": -127.59405752310076, "alt_km": 35779.14714831773, "timestamp": "2025-12-09T23:33:24.097285+00:00", "meta": {"OBJECT_NAME": "BEIDOU-3 G4 (C62)", "OBJECT_ID": "2023-066A", "EPOCH": "2025-12-09T14:20:03.306336", "MEAN_MOTION": 1.00271258, "ECCENTRICITY": 0.00030005, "INCLINATION": 0.8216, "RA_OF_ASC_NODE": 301.8039, "ARG_OF_PERICENTER": 235.3297, "MEAN_ANOMALY": 276.5327, "EPHEMERIS_TYPE": 0, "CLASSIFICATION_TYPE": "U", "NORAD_CAT_ID": 56564, "ELEMENT_SET_NO": 999, "REV_AT_EPOCH": 949, "BSTAR": 0, "MEAN_MOTION_DOT": -1.09e-06, "MEAN_MOTION_DDOT": 0}, "tle": {"line1": "1 56564U 23066A   25343.59726049 -.00000109  00000+0  00000+0 0  9991", "line2": "2 56564   0.8216 301.8039 0003000 235.3297 276.5327  1.00271258  9493"}}, "geometry": {"type": "Point", "coordinates": [-127.59405752310076, -0.7868421522896775]}}, {"type": "Feature", "properties": {"norad_id": 56759, "name": "NVS-01 (IRNSS-1J)", "group": "gnss", "lat": -2.027163261637277, "lon": -158.32981615829226, "alt_km": 35769.286353354, "timestamp": "2025-12-09T23:33:24.097307+00:00", "meta": {"OBJECT_NAME": "NVS-01 (IRNSS-1J)", "OBJECT_ID": "2023-076A", "EPOCH": "2025-12-09T12:28:36.481152", "MEAN_MOTION": 1.00264746, "ECCENTRICITY": 0.00086493, "INCLINATION": 2.6259, "RA_OF_ASC_NODE": 251.718, "ARG_OF_PERICENTER": 8.5239, "MEAN_ANOMALY": 134.8494, "EPHEMERIS_TYPE": 0, "CLASSIFICATION_TYPE": "U", "NORAD_CAT_ID": 56759, "ELEMENT_SET_NO": 999, "REV_AT_EPOCH": 921, "BSTAR": 0, "MEAN_MOTION_DOT": -3.34e-06, "MEAN_MOTION_DDOT": 0}, "tle": {"line1": "1 56759U 23076A   25343.51986668 -.00000334  00000+0  00000+0 0  9995", "line2": "2 56759   2.6259 251.7180 0008649   8.5239 134.8494  1.00264746  9211"}}, "geometry": {"type": "Point", "coordinates": [-158.32981615829226, -2.027163261637277]}}, {"type": "Feature", "properties": {"norad_id": 57517, "name": "COSMOS 2569 (703K)", "group": "gnss", "lat": -48.86887403826081, "lon": -69.06211524723957, "alt_km": 19118.753279662706, "timestamp": "2025-12-09T23:33:24.097325+00:00", "meta": {"OBJECT_NAME": "COSMOS 2569 (703K)", "OBJECT_ID": "2023-114A", "EPOCH": "2025-12-09T04:54:16.689312", "MEAN_MOTION": 2.13103889, "ECCENTRICITY": 0.0010394, "INCLINATION": 65.1923, "RA_OF_ASC_NODE": 79.033, "ARG_OF_PERICENTER": 287.0321, "MEAN_ANOMALY": 72.8717, "EPHEMERIS_TYPE": 0, "CLASSIFICATION_TYPE": "U", "NORAD_CAT_ID": 57517, "ELEMENT_SET_NO": 999, "REV_AT_EPOCH": 1821, "BSTAR": 0, "MEAN_MOTION_DOT": -1.4e-07, "MEAN_MOTION_DDOT": 0}, "tle": {"line1": "1 57517U 23114A   25343.20435983 -.00000014  00000+0  00000+0 0  9991", "line2": "2 57517  65.1923  79.0330 0010394 287.0321  72.8717  2.13103889 18214"}}, "geometry": {"type": "Point", "coordinates": [-69.06211524723957, -48.86887403826081]}}, {"type": "Feature", "properties": {"norad_id": 58654, "name": "BEIDOU-3 M28 (C50)", "group": "gnss", "lat": 21.96921109134766, "lon": -127.32975737272193, "alt_km": 21528.33675005826, "timestamp": "2025-12-09T23:33:24.097343+00:00", "meta": {"OBJECT_NAME": "BEIDOU-3 M28 (C50)", "OBJECT_ID": "2023-207A", "EPOCH": "2025-12-09T05:11:28.664736", "MEAN_MOTION": 1.86229641, "ECCENTRICITY": 0.0002291, "INCLINATION": 55.5815, "RA_OF_ASC_NODE": 68.7207, "ARG_OF_PERICENTER": 268.7348, "MEAN_ANOMALY": 91.2612, "EPHEMERIS_TYPE": 0, "CLASSIFICATION_TYPE": "U", "NORAD_CAT_ID": 58654, "ELEMENT_SET_NO": 999, "REV_AT_EPOCH": 1330, "BSTAR": 0, "MEAN_MOTION_DOT": -4.9e-07, "MEAN_MOTION_DDOT": 0}, "tle": {"line1": "1 58654U 23207A   25343.21630399 -.00000049  00000+0  00000+0 0  9994", "line2": "2 58654  55.5815  68.7207 0002291 268.7348  91.2612  1.86229641 13308"}}, "geometry": {"type": "Point", "coordinates": [-127.32975737272193, 21.96921109134766]}}, {"type": "Feature", "properties": {"norad_id": 58655, "name": "BEIDOU-3 M26 (C48)", "group": "gnss", "lat": -51.407489384520574, "lon": 9.614477241872196, "alt_km": 21525.160880238316, "timestamp": "2025-12-09T23:33:24.097363+00:00", "meta": {"OBJECT_NAME": "BEIDOU-3 M26 (C48)", "OBJECT_ID": "2023-207B", "EPOCH": "2025-12-09T13:13:20.106624", "MEAN_MOTION": 1.86231165, "ECCENTRICITY": 0.00036999, "INCLINATION": 55.5839, "RA_OF_ASC_NODE": 68.6957, "ARG_OF_PERICENTER": 254.5617, "MEAN_ANOMALY": 105.42, "EPHEMERIS_TYPE": 0, "CLASSIFICATION_TYPE": "U", "NORAD_CAT_ID": 58655, "ELEMENT_SET_NO": 999, "REV_AT_EPOCH": 1329, "BSTAR": 0, "MEAN_MOTION_DOT": -5.1e-07, "MEAN_MOTION_DDOT": 0}, "tle": {"line1": "1 58655U 23207B   25343.55092716 -.00000051  00000+0  00000+0 0  9990", "line2": "2 58655  55.5839  68.6957 0003699 254.5617 105.4200  1.86231165 13294"}}, "geometry": {"type": "Point", "coordinates": [9.614477241872196, -51.407489384520574]}}]}